{
  "type": "FeatureCollection",
  "features": [
    {
      "type": "Feature",
      "geometry": {
        "type": "Point",
        "coordinates": [
          -81.42232164,
          39.09555669
        ]
      },
      "properties": {
        "sign_class": "Warnings",
        "confidence": 0.9156,
        "sighting_count": 1,
        "needs_review": true,
        "review_reason": "Single sighting; Not in WVDOH inventory",
        "class_vote_pct": 1.0,
        "video_source": "seg.mp4",
        "first_seen_ts": 6506,
        "best_frame_ts": 6506,
        "lat_std": 0.0,
        "lon_std": 0.0,
        "inventory_match": null,
        "inventory_distance_m": null,
        "discrepancy_type": "detected_not_in_inventory",
        "thumbnail_url": "/frame/0",
        "cluster_id": 0
      }
    },
    {
      "type": "Feature",
      "geometry": {
        "type": "Point",
        "coordinates": [
          -81.41745628,
          39.08666938
        ]
      },
      "properties": {
        "sign_class": "Warnings",
        "confidence": 0.6722,
        "sighting_count": 1,
        "needs_review": true,
        "review_reason": "Single sighting; Not in WVDOH inventory",
        "class_vote_pct": 1.0,
        "video_source": "seg.mp4",
        "first_seen_ts": 50483,
        "best_frame_ts": 50483,
        "lat_std": 0.0,
        "lon_std": 0.0,
        "inventory_match": null,
        "inventory_distance_m": null,
        "discrepancy_type": "detected_not_in_inventory",
        "thumbnail_url": "/frame/1",
        "cluster_id": 1
      }
    },
    {
      "type": "Feature",
      "geometry": {
        "type": "Point",
        "coordinates": [
          -81.41736394,
          39.0865913
        ]
      },
      "properties": {
        "sign_class": "Warnings",
        "confidence": 0.5672,
        "sighting_count": 1,
        "needs_review": true,
        "review_reason": "Single sighting; Not in WVDOH inventory",
        "class_vote_pct": 1.0,
        "video_source": "seg.mp4",
        "first_seen_ts": 50984,
        "best_frame_ts": 50984,
        "lat_std": 0.0,
        "lon_std": 0.0,
        "inventory_match": null,
        "inventory_distance_m": null,
        "discrepancy_type": "detected_not_in_inventory",
        "thumbnail_url": "/frame/2",
        "cluster_id": 2
      }
    },
    {
      "type": "Feature",
      "geometry": {
        "type": "Point",
        "coordinates": [
          -81.41726911,
          39.08651573
        ]
      },
      "properties": {
        "sign_class": "Warnings",
        "confidence": 0.7417,
        "sighting_count": 1,
        "needs_review": true,
        "review_reason": "Single sighting; Not in WVDOH inventory",
        "class_vote_pct": 1.0,
        "video_source": "seg.mp4",
        "first_seen_ts": 51484,
        "best_frame_ts": 51484,
        "lat_std": 0.0,
        "lon_std": 0.0,
        "inventory_match": null,
        "inventory_distance_m": null,
        "discrepancy_type": "detected_not_in_inventory",
        "thumbnail_url": "/frame/3",
        "cluster_id": 3
      }
    },
    {
      "type": "Feature",
      "geometry": {
        "type": "Point",
        "coordinates": [
          -81.41717206,
          39.0864428
        ]
      },
      "properties": {
        "sign_class": "Warnings",
        "confidence": 0.9265,
        "sighting_count": 1,
        "needs_review": true,
        "review_reason": "Single sighting",
        "class_vote_pct": 1.0,
        "video_source": "seg.mp4",
        "first_seen_ts": 51985,
        "best_frame_ts": 51985,
        "lat_std": 0.0,
        "lon_std": 0.0,
        "inventory_match": 130792,
        "inventory_distance_m": 15.82,
        "discrepancy_type": null,
        "thumbnail_url": "/frame/4",
        "inventory_source": "Informational_Signs_838966932215877587.geojson",
        "inventory_class": "Warnings",
        "cluster_id": 4
      }
    },
    {
      "type": "Feature",
      "geometry": {
        "type": "Point",
        "coordinates": [
          -81.41676957,
          39.08616228
        ]
      },
      "properties": {
        "sign_class": "Regulatory",
        "confidence": 0.6547,
        "sighting_count": 1,
        "needs_review": true,
        "review_reason": "Single sighting; Not in WVDOH inventory",
        "class_vote_pct": 1.0,
        "video_source": "seg.mp4",
        "first_seen_ts": 53987,
        "best_frame_ts": 53987,
        "lat_std": 0.0,
        "lon_std": 0.0,
        "inventory_match": null,
        "inventory_distance_m": null,
        "discrepancy_type": "detected_not_in_inventory",
        "thumbnail_url": "/frame/5",
        "cluster_id": 5
      }
    },
    {
      "type": "Feature",
      "geometry": {
        "type": "Point",
        "coordinates": [
          -81.41666943,
          39.08609173
        ]
      },
      "properties": {
        "sign_class": "Regulatory",
        "confidence": 0.8264,
        "sighting_count": 1,
        "needs_review": true,
        "review_reason": "Single sighting; Not in WVDOH inventory",
        "class_vote_pct": 1.0,
        "video_source": "seg.mp4",
        "first_seen_ts": 54487,
        "best_frame_ts": 54487,
        "lat_std": 0.0,
        "lon_std": 0.0,
        "inventory_match": null,
        "inventory_distance_m": null,
        "discrepancy_type": "detected_not_in_inventory",
        "thumbnail_url": "/frame/6",
        "cluster_id": 6
      }
    },
    {
      "type": "Feature",
      "geometry": {
        "type": "Point",
        "coordinates": [
          -81.41557009,
          39.0850587
        ]
      },
      "properties": {
        "sign_class": "Informational",
        "confidence": 0.4462,
        "sighting_count": 1,
        "needs_review": true,
        "review_reason": "Single sighting; Low confidence (0.45)",
        "class_vote_pct": 1.0,
        "video_source": "seg.mp4",
        "first_seen_ts": 60994,
        "best_frame_ts": 60994,
        "lat_std": 0.0,
        "lon_std": 0.0,
        "inventory_match": 131001,
        "inventory_distance_m": 9.12,
        "discrepancy_type": null,
        "thumbnail_url": "/frame/7",
        "inventory_source": "Informational_Signs_838966932215877587.geojson",
        "inventory_class": "Informational",
        "cluster_id": 7
      }
    },
    {
      "type": "Feature",
      "geometry": {
        "type": "Point",
        "coordinates": [
          -81.41491438,
          39.08355779
        ]
      },
      "properties": {
        "sign_class": "Curves",
        "confidence": 0.5332,
        "sighting_count": 2,
        "needs_review": true,
        "review_reason": "Split class vote (Curves 50% / Warnings 50%); Not in WVDOH inventory",
        "class_vote_pct": 0.5,
        "video_source": "seg.mp4",
        "first_seen_ts": 68501,
        "best_frame_ts": 68501,
        "lat_std": 0.0,
        "lon_std": 0.0,
        "inventory_match": null,
        "inventory_distance_m": null,
        "discrepancy_type": "detected_not_in_inventory",
        "thumbnail_url": "/frame/8",
        "cluster_id": 8
      }
    },
    {
      "type": "Feature",
      "geometry": {
        "type": "Point",
        "coordinates": [
          -81.41488051,
          39.08345118
        ]
      },
      "properties": {
        "sign_class": "Warnings",
        "confidence": 0.9066,
        "sighting_count": 1,
        "needs_review": true,
        "review_reason": "Single sighting; Not in WVDOH inventory",
        "class_vote_pct": 1.0,
        "video_source": "seg.mp4",
        "first_seen_ts": 69002,
        "best_frame_ts": 69002,
        "lat_std": 0.0,
        "lon_std": 0.0,
        "inventory_match": null,
        "inventory_distance_m": null,
        "discrepancy_type": "detected_not_in_inventory",
        "thumbnail_url": "/frame/9",
        "cluster_id": 9
      }
    },
    {
      "type": "Feature",
      "geometry": {
        "type": "Point",
        "coordinates": [
          -81.41484581,
          39.08334424
        ]
      },
      "properties": {
        "sign_class": "Warnings",
        "confidence": 0.8382,
        "sighting_count": 1,
        "needs_review": true,
        "review_reason": "Single sighting",
        "class_vote_pct": 1.0,
        "video_source": "seg.mp4",
        "first_seen_ts": 69502,
        "best_frame_ts": 69502,
        "lat_std": 0.0,
        "lon_std": 0.0,
        "inventory_match": 130999,
        "inventory_distance_m": 14.8,
        "discrepancy_type": null,
        "thumbnail_url": "/frame/10",
        "inventory_source": "Informational_Signs_838966932215877587.geojson",
        "inventory_class": "Warnings",
        "cluster_id": 10
      }
    },
    {
      "type": "Feature",
      "geometry": {
        "type": "Point",
        "coordinates": [
          -81.40950786,
          39.07816501
        ]
      },
      "properties": {
        "sign_class": "Curves",
        "confidence": 0.7494,
        "sighting_count": 1,
        "needs_review": true,
        "review_reason": "Single sighting; Not in WVDOH inventory",
        "class_vote_pct": 1.0,
        "video_source": "seg.mp4",
        "first_seen_ts": 99999,
        "best_frame_ts": 99999,
        "lat_std": 0.0,
        "lon_std": 0.0,
        "inventory_match": null,
        "inventory_distance_m": null,
        "discrepancy_type": "detected_not_in_inventory",
        "thumbnail_url": "/frame/11",
        "cluster_id": 11
      }
    },
    {
      "type": "Feature",
      "geometry": {
        "type": "Point",
        "coordinates": [
          -81.4093859,
          39.07809278
        ]
      },
      "properties": {
        "sign_class": "Curves",
        "confidence": 0.8863,
        "sighting_count": 1,
        "needs_review": true,
        "review_reason": "Single sighting; Not in WVDOH inventory",
        "class_vote_pct": 1.0,
        "video_source": "seg.mp4",
        "first_seen_ts": 100500,
        "best_frame_ts": 100500,
        "lat_std": 0.0,
        "lon_std": 0.0,
        "inventory_match": null,
        "inventory_distance_m": null,
        "discrepancy_type": "detected_not_in_inventory",
        "thumbnail_url": "/frame/12",
        "cluster_id": 12
      }
    },
    {
      "type": "Feature",
      "geometry": {
        "type": "Point",
        "coordinates": [
          -81.40926328,
          39.07802054
        ]
      },
      "properties": {
        "sign_class": "Curves",
        "confidence": 0.9326,
        "sighting_count": 1,
        "needs_review": true,
        "review_reason": "Single sighting; Not in WVDOH inventory",
        "class_vote_pct": 1.0,
        "video_source": "seg.mp4",
        "first_seen_ts": 101000,
        "best_frame_ts": 101000,
        "lat_std": 0.0,
        "lon_std": 0.0,
        "inventory_match": null,
        "inventory_distance_m": null,
        "discrepancy_type": "detected_not_in_inventory",
        "thumbnail_url": "/frame/13",
        "cluster_id": 13
      }
    },
    {
      "type": "Feature",
      "geometry": {
        "type": "Point",
        "coordinates": [
          -81.40914082,
          39.0779483
        ]
      },
      "properties": {
        "sign_class": "Curves",
        "confidence": 0.6635,
        "sighting_count": 1,
        "needs_review": true,
        "review_reason": "Single sighting; Class mismatch (detected Curves, inventory Warnings)",
        "class_vote_pct": 1.0,
        "video_source": "seg.mp4",
        "first_seen_ts": 101501,
        "best_frame_ts": 101501,
        "lat_std": 0.0,
        "lon_std": 0.0,
        "inventory_match": 130997,
        "inventory_distance_m": 14.9,
        "discrepancy_type": "class_mismatch",
        "thumbnail_url": "/frame/14",
        "inventory_source": "Informational_Signs_838966932215877587.geojson",
        "inventory_class": "Warnings",
        "cluster_id": 14
      }
    },
    {
      "type": "Feature",
      "geometry": {
        "type": "Point",
        "coordinates": [
          -81.40496858,
          39.07335078
        ]
      },
      "properties": {
        "sign_class": "Regulatory",
        "confidence": 0.4379,
        "sighting_count": 1,
        "needs_review": true,
        "review_reason": "Single sighting; Low confidence (0.44); Not in WVDOH inventory",
        "class_vote_pct": 1.0,
        "video_source": "seg.mp4",
        "first_seen_ts": 126993,
        "best_frame_ts": 126993,
        "lat_std": 0.0,
        "lon_std": 0.0,
        "inventory_match": null,
        "inventory_distance_m": null,
        "discrepancy_type": "detected_not_in_inventory",
        "thumbnail_url": "/frame/15",
        "cluster_id": 15
      }
    },
    {
      "type": "Feature",
      "geometry": {
        "type": "Point",
        "coordinates": [
          -81.40493671,
          39.0732525
        ]
      },
      "properties": {
        "sign_class": "Curves",
        "confidence": 0.8428,
        "sighting_count": 1,
        "needs_review": true,
        "review_reason": "Single sighting; Not in WVDOH inventory",
        "class_vote_pct": 1.0,
        "video_source": "seg.mp4",
        "first_seen_ts": 127494,
        "best_frame_ts": 127494,
        "lat_std": 0.0,
        "lon_std": 0.0,
        "inventory_match": null,
        "inventory_distance_m": null,
        "discrepancy_type": "detected_not_in_inventory",
        "thumbnail_url": "/frame/16",
        "cluster_id": 16
      }
    },
    {
      "type": "Feature",
      "geometry": {
        "type": "Point",
        "coordinates": [
          -81.40490371,
          39.07315605
        ]
      },
      "properties": {
        "sign_class": "Curves",
        "confidence": 0.8192,
        "sighting_count": 1,
        "needs_review": true,
        "review_reason": "Single sighting; Not in WVDOH inventory",
        "class_vote_pct": 1.0,
        "video_source": "seg.mp4",
        "first_seen_ts": 127994,
        "best_frame_ts": 127994,
        "lat_std": 0.0,
        "lon_std": 0.0,
        "inventory_match": null,
        "inventory_distance_m": null,
        "discrepancy_type": "detected_not_in_inventory",
        "thumbnail_url": "/frame/17",
        "cluster_id": 17
      }
    },
    {
      "type": "Feature",
      "geometry": {
        "type": "Point",
        "coordinates": [
          -81.40485068,
          39.07301611
        ]
      },
      "properties": {
        "sign_class": "Curves",
        "confidence": 0.9225,
        "sighting_count": 2,
        "needs_review": false,
        "review_reason": null,
        "class_vote_pct": 1.0,
        "video_source": "seg.mp4",
        "first_seen_ts": 128495,
        "best_frame_ts": 128995,
        "lat_std": 4.548e-05,
        "lon_std": 1.834e-05,
        "inventory_match": 6258,
        "inventory_distance_m": 20.81,
        "discrepancy_type": null,
        "thumbnail_url": "/frame/18",
        "inventory_source": "Curve_Signs_8812841800954580742.geojson",
        "inventory_class": "Curves",
        "cluster_id": 18
      }
    },
    {
      "type": "Feature",
      "geometry": {
        "type": "Point",
        "coordinates": [
          -81.40447416,
          39.07220209
        ]
      },
      "properties": {
        "sign_class": "Regulatory",
        "confidence": 0.8864,
        "sighting_count": 29,
        "needs_review": true,
        "review_reason": "Not in WVDOH inventory",
        "class_vote_pct": 1.0,
        "video_source": "seg.mp4",
        "first_seen_ts": 130497,
        "best_frame_ts": 138505,
        "lat_std": 0.00034881,
        "lon_std": 0.0001038,
        "inventory_match": null,
        "inventory_distance_m": null,
        "discrepancy_type": "detected_not_in_inventory",
        "thumbnail_url": "/frame/19",
        "cluster_id": 19
      }
    },
    {
      "type": "Feature",
      "geometry": {
        "type": "Point",
        "coordinates": [
          -81.40689342,
          39.0700068
        ]
      },
      "properties": {
        "sign_class": "Curves",
        "confidence": 0.5841,
        "sighting_count": 1,
        "needs_review": true,
        "review_reason": "Single sighting; Not in WVDOH inventory",
        "class_vote_pct": 1.0,
        "video_source": "seg.mp4",
        "first_seen_ts": 151985,
        "best_frame_ts": 151985,
        "lat_std": 0.0,
        "lon_std": 0.0,
        "inventory_match": null,
        "inventory_distance_m": null,
        "discrepancy_type": "detected_not_in_inventory",
        "thumbnail_url": "/frame/20",
        "cluster_id": 20
      }
    },
    {
      "type": "Feature",
      "geometry": {
        "type": "Point",
        "coordinates": [
          -81.40698666,
          39.06994717
        ]
      },
      "properties": {
        "sign_class": "Curves",
        "confidence": 0.8922,
        "sighting_count": 1,
        "needs_review": true,
        "review_reason": "Single sighting; Not in WVDOH inventory",
        "class_vote_pct": 1.0,
        "video_source": "seg.mp4",
        "first_seen_ts": 152485,
        "best_frame_ts": 152485,
        "lat_std": 0.0,
        "lon_std": 0.0,
        "inventory_match": null,
        "inventory_distance_m": null,
        "discrepancy_type": "detected_not_in_inventory",
        "thumbnail_url": "/frame/21",
        "cluster_id": 21
      }
    },
    {
      "type": "Feature",
      "geometry": {
        "type": "Point",
        "coordinates": [
          -81.40744654,
          39.0696504
        ]
      },
      "properties": {
        "sign_class": "Regulatory",
        "confidence": 0.4841,
        "sighting_count": 1,
        "needs_review": true,
        "review_reason": "Single sighting; Low confidence (0.48); Not in WVDOH inventory",
        "class_vote_pct": 1.0,
        "video_source": "seg.mp4",
        "first_seen_ts": 154988,
        "best_frame_ts": 154988,
        "lat_std": 0.0,
        "lon_std": 0.0,
        "inventory_match": null,
        "inventory_distance_m": null,
        "discrepancy_type": "detected_not_in_inventory",
        "thumbnail_url": "/frame/22",
        "cluster_id": 22
      }
    },
    {
      "type": "Feature",
      "geometry": {
        "type": "Point",
        "coordinates": [
          -81.40762623,
          39.06953389
        ]
      },
      "properties": {
        "sign_class": "Regulatory",
        "confidence": 0.6847,
        "sighting_count": 1,
        "needs_review": true,
        "review_reason": "Single sighting; Not in WVDOH inventory",
        "class_vote_pct": 1.0,
        "video_source": "seg.mp4",
        "first_seen_ts": 155989,
        "best_frame_ts": 155989,
        "lat_std": 0.0,
        "lon_std": 0.0,
        "inventory_match": null,
        "inventory_distance_m": null,
        "discrepancy_type": "detected_not_in_inventory",
        "thumbnail_url": "/frame/23",
        "cluster_id": 23
      }
    },
    {
      "type": "Feature",
      "geometry": {
        "type": "Point",
        "coordinates": [
          -81.40780148,
          39.06942125
        ]
      },
      "properties": {
        "sign_class": "Regulatory",
        "confidence": 0.6883,
        "sighting_count": 1,
        "needs_review": true,
        "review_reason": "Single sighting; Not in WVDOH inventory",
        "class_vote_pct": 1.0,
        "video_source": "seg.mp4",
        "first_seen_ts": 156990,
        "best_frame_ts": 156990,
        "lat_std": 0.0,
        "lon_std": 0.0,
        "inventory_match": null,
        "inventory_distance_m": null,
        "discrepancy_type": "detected_not_in_inventory",
        "thumbnail_url": "/frame/24",
        "cluster_id": 24
      }
    },
    {
      "type": "Feature",
      "geometry": {
        "type": "Point",
        "coordinates": [
          -81.40838127,
          39.06896476
        ]
      },
      "properties": {
        "sign_class": "Regulatory",
        "confidence": 0.9069,
        "sighting_count": 27,
        "needs_review": true,
        "review_reason": "Split class vote (Regulatory 63% / HighwaySymbols 15%); Class mismatch (detected Regulatory, inventory Informational)",
        "class_vote_pct": 0.6296,
        "video_source": "seg.mp4",
        "first_seen_ts": 157490,
        "best_frame_ts": 158992,
        "lat_std": 0.00023427,
        "lon_std": 0.00020315,
        "inventory_match": 130721,
        "inventory_distance_m": 15.6,
        "discrepancy_type": "class_mismatch",
        "thumbnail_url": "/frame/25",
        "inventory_source": "Informational_Signs_838966932215877587.geojson",
        "inventory_class": "Informational",
        "cluster_id": 25
      }
    },
    {
      "type": "Feature",
      "geometry": {
        "type": "Point",
        "coordinates": [
          -81.40864022,
          39.06780968
        ]
      },
      "properties": {
        "sign_class": "Regulatory",
        "confidence": 0.9326,
        "sighting_count": 24,
        "needs_review": true,
        "review_reason": "Split class vote (Regulatory 62% / Curves 29%); Class mismatch (detected Regulatory, inventory Curves)",
        "class_vote_pct": 0.625,
        "video_source": "seg.mp4",
        "first_seen_ts": 164998,
        "best_frame_ts": 169002,
        "lat_std": 0.00037054,
        "lon_std": 3.45e-05,
        "inventory_match": 6088,
        "inventory_distance_m": 13.33,
        "discrepancy_type": "class_mismatch",
        "thumbnail_url": "/frame/26",
        "inventory_source": "Curve_Signs_8812841800954580742.geojson",
        "inventory_class": "Curves",
        "cluster_id": 26
      }
    },
    {
      "type": "Feature",
      "geometry": {
        "type": "Point",
        "coordinates": [
          -81.40859122,
          39.06695037
        ]
      },
      "properties": {
        "sign_class": "SpeedLimits",
        "confidence": 0.9329,
        "sighting_count": 1,
        "needs_review": true,
        "review_reason": "Single sighting",
        "class_vote_pct": 1.0,
        "video_source": "seg.mp4",
        "first_seen_ts": 175008,
        "best_frame_ts": 175008,
        "lat_std": 0.0,
        "lon_std": 0.0,
        "inventory_match": 130718,
        "inventory_distance_m": 12.38,
        "discrepancy_type": null,
        "thumbnail_url": "/frame/27",
        "inventory_source": "Speed_Limit_Signs.geojson",
        "inventory_class": "SpeedLimits",
        "cluster_id": 27
      }
    },
    {
      "type": "Feature",
      "geometry": {
        "type": "Point",
        "coordinates": [
          -81.40849919,
          39.06674654
        ]
      },
      "properties": {
        "sign_class": "Regulatory",
        "confidence": 0.4072,
        "sighting_count": 1,
        "needs_review": true,
        "review_reason": "Single sighting; Low confidence (0.41); Class mismatch (detected Regulatory, inventory SpeedLimits)",
        "class_vote_pct": 1.0,
        "video_source": "seg.mp4",
        "first_seen_ts": 176509,
        "best_frame_ts": 176509,
        "lat_std": 0.0,
        "lon_std": 0.0,
        "inventory_match": 130931,
        "inventory_distance_m": 9.07,
        "discrepancy_type": "class_mismatch",
        "thumbnail_url": "/frame/28",
        "inventory_source": "Speed_Limit_Signs.geojson",
        "inventory_class": "SpeedLimits",
        "cluster_id": 28
      }
    },
    {
      "type": "Feature",
      "geometry": {
        "type": "Point",
        "coordinates": [
          -81.40832229,
          39.06641729
        ]
      },
      "properties": {
        "sign_class": "Regulatory",
        "confidence": 0.853,
        "sighting_count": 8,
        "needs_review": true,
        "review_reason": "Not in WVDOH inventory",
        "class_vote_pct": 1.0,
        "video_source": "seg.mp4",
        "first_seen_ts": 178011,
        "best_frame_ts": 179012,
        "lat_std": 7.766e-05,
        "lon_std": 4.371e-05,
        "inventory_match": null,
        "inventory_distance_m": null,
        "discrepancy_type": "detected_not_in_inventory",
        "thumbnail_url": "/frame/29",
        "cluster_id": 29
      }
    },
    {
      "type": "Feature",
      "geometry": {
        "type": "Point",
        "coordinates": [
          -81.4042726487466,
          39.0719056450278
        ]
      },
      "properties": {
        "sign_class": "Curves",
        "confidence": 0.0,
        "sighting_count": 0,
        "needs_review": true,
        "review_reason": "Inventory sign not detected within 25m",
        "class_vote_pct": 0.0,
        "video_source": null,
        "first_seen_ts": null,
        "best_frame_ts": null,
        "lat_std": 0.0,
        "lon_std": 0.0,
        "inventory_match": 4724,
        "inventory_distance_m": null,
        "inventory_source": "Curve_Signs_8812841800954580742.geojson",
        "discrepancy_type": "in_inventory_not_detected",
        "cluster_id": 30
      }
    },
    {
      "type": "Feature",
      "geometry": {
        "type": "Point",
        "coordinates": [
          -81.4042836495143,
          39.0717356438143
        ]
      },
      "properties": {
        "sign_class": "Curves",
        "confidence": 0.0,
        "sighting_count": 0,
        "needs_review": true,
        "review_reason": "Inventory sign not detected within 25m",
        "class_vote_pct": 0.0,
        "video_source": null,
        "first_seen_ts": null,
        "best_frame_ts": null,
        "lat_std": 0.0,
        "lon_std": 0.0,
        "inventory_match": 10712,
        "inventory_distance_m": null,
        "inventory_source": "Curve_Signs_8812841800954580742.geojson",
        "discrepancy_type": "in_inventory_not_detected",
        "cluster_id": 31
      }
    },
    {
      "type": "Feature",
      "geometry": {
        "type": "Point",
        "coordinates": [
          -81.4080196514533,
          39.0691046435916
        ]
      },
      "properties": {
        "sign_class": "HighwaySymbols",
        "confidence": 0.0,
        "sighting_count": 0,
        "needs_review": true,
        "review_reason": "Inventory sign not detected within 25m",
        "class_vote_pct": 0.0,
        "video_source": null,
        "first_seen_ts": null,
        "best_frame_ts": null,
        "lat_std": 0.0,
        "lon_std": 0.0,
        "inventory_match": 130722,
        "inventory_distance_m": null,
        "inventory_source": "Highway_Shields_1514051693861064086.geojson",
        "discrepancy_type": "in_inventory_not_detected",
        "cluster_id": 32
      }
    },
    {
      "type": "Feature",
      "geometry": {
        "type": "Point",
        "coordinates": [
          -81.4080196514533,
          39.0691046435916
        ]
      },
      "properties": {
        "sign_class": "HighwaySymbols",
        "confidence": 0.0,
        "sighting_count": 0,
        "needs_review": true,
        "review_reason": "Inventory sign not detected within 25m",
        "class_vote_pct": 0.0,
        "video_source": null,
        "first_seen_ts": null,
        "best_frame_ts": null,
        "lat_std": 0.0,
        "lon_std": 0.0,
        "inventory_match": 130723,
        "inventory_distance_m": null,
        "inventory_source": "Highway_Shields_1514051693861064086.geojson",
        "discrepancy_type": "in_inventory_not_detected",
        "cluster_id": 33
      }
    },
    {
      "type": "Feature",
      "geometry": {
        "type": "Point",
        "coordinates": [
          -81.4042076500477,
          39.0717756442159
        ]
      },
      "properties": {
        "sign_class": "Informational",
        "confidence": 0.0,
        "sighting_count": 0,
        "needs_review": true,
        "review_reason": "Inventory sign not detected within 25m",
        "class_vote_pct": 0.0,
        "video_source": null,
        "first_seen_ts": null,
        "best_frame_ts": null,
        "lat_std": 0.0,
        "lon_std": 0.0,
        "inventory_match": 33621,
        "inventory_distance_m": null,
        "inventory_source": "Informational_Signs_838966932215877587.geojson",
        "discrepancy_type": "in_inventory_not_detected",
        "cluster_id": 34
      }
    },
    {
      "type": "Feature",
      "geometry": {
        "type": "Point",
        "coordinates": [
          -81.4042076500477,
          39.0717756442159
        ]
      },
      "properties": {
        "sign_class": "Informational",
        "confidence": 0.0,
        "sighting_count": 0,
        "needs_review": true,
        "review_reason": "Inventory sign not detected within 25m",
        "class_vote_pct": 0.0,
        "video_source": null,
        "first_seen_ts": null,
        "best_frame_ts": null,
        "lat_std": 0.0,
        "lon_std": 0.0,
        "inventory_match": 33622,
        "inventory_distance_m": null,
        "inventory_source": "Informational_Signs_838966932215877587.geojson",
        "discrepancy_type": "in_inventory_not_detected",
        "cluster_id": 35
      }
    },
    {
      "type": "Feature",
      "geometry": {
        "type": "Point",
        "coordinates": [
          -81.4083706500797,
          39.0686686441024
        ]
      },
      "properties": {
        "sign_class": "Informational",
        "confidence": 0.0,
        "sighting_count": 0,
        "needs_review": true,
        "review_reason": "Inventory sign not detected within 25m",
        "class_vote_pct": 0.0,
        "video_source": null,
        "first_seen_ts": null,
        "best_frame_ts": null,
        "lat_std": 0.0,
        "lon_std": 0.0,
        "inventory_match": 130720,
        "inventory_distance_m": null,
        "inventory_source": "Informational_Signs_838966932215877587.geojson",
        "discrepancy_type": "in_inventory_not_detected",
        "cluster_id": 36
      }
    },
    {
      "type": "Feature",
      "geometry": {
        "type": "Point",
        "coordinates": [
          -81.4045016495941,
          39.0719726439751
        ]
      },
      "properties": {
        "sign_class": "Informational",
        "confidence": 0.0,
        "sighting_count": 0,
        "needs_review": true,
        "review_reason": "Inventory sign not detected within 25m",
        "class_vote_pct": 0.0,
        "video_source": null,
        "first_seen_ts": null,
        "best_frame_ts": null,
        "lat_std": 0.0,
        "lon_std": 0.0,
        "inventory_match": 130783,
        "inventory_distance_m": null,
        "inventory_source": "Informational_Signs_838966932215877587.geojson",
        "discrepancy_type": "in_inventory_not_detected",
        "cluster_id": 37
      }
    },
    {
      "type": "Feature",
      "geometry": {
        "type": "Point",
        "coordinates": [
          -81.4042246499774,
          39.0719356438287
        ]
      },
      "properties": {
        "sign_class": "Informational",
        "confidence": 0.0,
        "sighting_count": 0,
        "needs_review": true,
        "review_reason": "Inventory sign not detected within 25m",
        "class_vote_pct": 0.0,
        "video_source": null,
        "first_seen_ts": null,
        "best_frame_ts": null,
        "lat_std": 0.0,
        "lon_std": 0.0,
        "inventory_match": 130784,
        "inventory_distance_m": null,
        "inventory_source": "Informational_Signs_838966932215877587.geojson",
        "discrepancy_type": "in_inventory_not_detected",
        "cluster_id": 38
      }
    },
    {
      "type": "Feature",
      "geometry": {
        "type": "Point",
        "coordinates": [
          -81.4042246499774,
          39.0719356438287
        ]
      },
      "properties": {
        "sign_class": "Informational",
        "confidence": 0.0,
        "sighting_count": 0,
        "needs_review": true,
        "review_reason": "Inventory sign not detected within 25m",
        "class_vote_pct": 0.0,
        "video_source": null,
        "first_seen_ts": null,
        "best_frame_ts": null,
        "lat_std": 0.0,
        "lon_std": 0.0,
        "inventory_match": 130785,
        "inventory_distance_m": null,
        "inventory_source": "Informational_Signs_838966932215877587.geojson",
        "discrepancy_type": "in_inventory_not_detected",
        "cluster_id": 39
      }
    },
    {
      "type": "Feature",
      "geometry": {
        "type": "Point",
        "coordinates": [
          -81.4157006541074,
          39.0850296471918
        ]
      },
      "properties": {
        "sign_class": "Informational",
        "confidence": 0.0,
        "sighting_count": 0,
        "needs_review": true,
        "review_reason": "Inventory sign not detected within 25m",
        "class_vote_pct": 0.0,
        "video_source": null,
        "first_seen_ts": null,
        "best_frame_ts": null,
        "lat_std": 0.0,
        "lon_std": 0.0,
        "inventory_match": 130789,
        "inventory_distance_m": null,
        "inventory_source": "Informational_Signs_838966932215877587.geojson",
        "discrepancy_type": "in_inventory_not_detected",
        "cluster_id": 40
      }
    },
    {
      "type": "Feature",
      "geometry": {
        "type": "Point",
        "coordinates": [
          -81.4162556545983,
          39.0859006470174
        ]
      },
      "properties": {
        "sign_class": "Informational",
        "confidence": 0.0,
        "sighting_count": 0,
        "needs_review": true,
        "review_reason": "Inventory sign not detected within 25m",
        "class_vote_pct": 0.0,
        "video_source": null,
        "first_seen_ts": null,
        "best_frame_ts": null,
        "lat_std": 0.0,
        "lon_std": 0.0,
        "inventory_match": 130791,
        "inventory_distance_m": null,
        "inventory_source": "Informational_Signs_838966932215877587.geojson",
        "discrepancy_type": "in_inventory_not_detected",
        "cluster_id": 41
      }
    },
    {
      "type": "Feature",
      "geometry": {
        "type": "Point",
        "coordinates": [
          -81.4081846503149,
          39.0661186432971
        ]
      },
      "properties": {
        "sign_class": "Informational",
        "confidence": 0.0,
        "sighting_count": 0,
        "needs_review": true,
        "review_reason": "Inventory sign not detected within 25m",
        "class_vote_pct": 0.0,
        "video_source": null,
        "first_seen_ts": null,
        "best_frame_ts": null,
        "lat_std": 0.0,
        "lon_std": 0.0,
        "inventory_match": 130930,
        "inventory_distance_m": null,
        "inventory_source": "Informational_Signs_838966932215877587.geojson",
        "discrepancy_type": "in_inventory_not_detected",
        "cluster_id": 42
      }
    },
    {
      "type": "Feature",
      "geometry": {
        "type": "Point",
        "coordinates": [
          -81.4044636496979,
          39.0718246449015
        ]
      },
      "properties": {
        "sign_class": "Informational",
        "confidence": 0.0,
        "sighting_count": 0,
        "needs_review": true,
        "review_reason": "Inventory sign not detected within 25m",
        "class_vote_pct": 0.0,
        "video_source": null,
        "first_seen_ts": null,
        "best_frame_ts": null,
        "lat_std": 0.0,
        "lon_std": 0.0,
        "inventory_match": 130937,
        "inventory_distance_m": null,
        "inventory_source": "Informational_Signs_838966932215877587.geojson",
        "discrepancy_type": "in_inventory_not_detected",
        "cluster_id": 43
      }
    },
    {
      "type": "Feature",
      "geometry": {
        "type": "Point",
        "coordinates": [
          -81.4042186491916,
          39.0717866456044
        ]
      },
      "properties": {
        "sign_class": "Curves",
        "confidence": 0.0,
        "sighting_count": 0,
        "needs_review": true,
        "review_reason": "Inventory sign not detected within 25m",
        "class_vote_pct": 0.0,
        "video_source": null,
        "first_seen_ts": null,
        "best_frame_ts": null,
        "lat_std": 0.0,
        "lon_std": 0.0,
        "inventory_match": 19744,
        "inventory_distance_m": null,
        "inventory_source": "other_regulatory_signs_1787905119096970005.geojson",
        "discrepancy_type": "in_inventory_not_detected",
        "cluster_id": 44
      }
    },
    {
      "type": "Feature",
      "geometry": {
        "type": "Point",
        "coordinates": [
          -81.4086736506976,
          39.0676926434353
        ]
      },
      "properties": {
        "sign_class": "Curves",
        "confidence": 0.0,
        "sighting_count": 0,
        "needs_review": true,
        "review_reason": "Inventory sign not detected within 25m",
        "class_vote_pct": 0.0,
        "video_source": null,
        "first_seen_ts": null,
        "best_frame_ts": null,
        "lat_std": 0.0,
        "lon_std": 0.0,
        "inventory_match": 130932,
        "inventory_distance_m": null,
        "inventory_source": "Speed_Limit_Signs.geojson",
        "discrepancy_type": "in_inventory_not_detected",
        "cluster_id": 45
      }
    },
    {
      "type": "Feature",
      "geometry": {
        "type": "Point",
        "coordinates": [
          -81.4086196501946,
          39.0681736440915
        ]
      },
      "properties": {
        "sign_class": "SpeedLimits",
        "confidence": 0.0,
        "sighting_count": 0,
        "needs_review": true,
        "review_reason": "Inventory sign not detected within 25m",
        "class_vote_pct": 0.0,
        "video_source": null,
        "first_seen_ts": null,
        "best_frame_ts": null,
        "lat_std": 0.0,
        "lon_std": 0.0,
        "inventory_match": 130934,
        "inventory_distance_m": null,
        "inventory_source": "Speed_Limit_Signs.geojson",
        "discrepancy_type": "in_inventory_not_detected",
        "cluster_id": 46
      }
    },
    {
      "type": "Feature",
      "geometry": {
        "type": "Point",
        "coordinates": [
          -81.4048706501681,
          39.0728296449087
        ]
      },
      "properties": {
        "sign_class": "Curves",
        "confidence": 0.0,
        "sighting_count": 0,
        "needs_review": true,
        "review_reason": "Inventory sign not detected within 25m",
        "class_vote_pct": 0.0,
        "video_source": null,
        "first_seen_ts": null,
        "best_frame_ts": null,
        "lat_std": 0.0,
        "lon_std": 0.0,
        "inventory_match": 130995,
        "inventory_distance_m": null,
        "inventory_source": "Speed_Limit_Signs.geojson",
        "discrepancy_type": "in_inventory_not_detected",
        "cluster_id": 47
      }
    },
    {
      "type": "Feature",
      "geometry": {
        "type": "Point",
        "coordinates": [
          -81.4041986495248,
          39.0719116444895
        ]
      },
      "properties": {
        "sign_class": "StopSigns",
        "confidence": 0.0,
        "sighting_count": 0,
        "needs_review": true,
        "review_reason": "Inventory sign not detected within 25m",
        "class_vote_pct": 0.0,
        "video_source": null,
        "first_seen_ts": null,
        "best_frame_ts": null,
        "lat_std": 0.0,
        "lon_std": 0.0,
        "inventory_match": 3125,
        "inventory_distance_m": null,
        "inventory_source": "Stop_Signs_-3742581986319919097.geojson",
        "discrepancy_type": "in_inventory_not_detected",
        "cluster_id": 48
      }
    }
  ]
}